$$SOE
2460154.500000000, A.D. 2023-Jul-29 00:00:00.0000, -2.574538096848654E+08, -8.894762046875159E+07, 3.795149974182565E+07,
2460161.500000000, A.D. 2023-Aug-05 00:00:00.0000, -2.532520884665169E+08, -1.007950613678422E+08, 4.267951954013474E+07,
2460168.500000000, A.D. 2023-Aug-12 00:00:00.0000, -2.484650947341835E+08, -1.124096015749250E+08, 4.730891761928558E+07,
2460175.500000000, A.D. 2023-Aug-19 00:00:00.0000, -2.431094035278614E+08, -1.237668924853528E+08, 5.183004363596641E+07,
2460182.500000000, A.D. 2023-Aug-26 00:00:00.0000, -2.372026522909123E+08, -1.348436768900736E+08, 5.623369494597807E+07,
2460189.500000000, A.D. 2023-Sep-02 00:00:00.0000, -2.307634513568239E+08, -1.456178146488952E+08, 6.051112617864119E+07,
2460196.500000000, A.D. 2023-Sep-09 00:00:00.0000, -2.238112962083153E+08, -1.560683021330844E+08, 6.465405626484323E+07,
2460203.500000000, A.D. 2023-Sep-16 00:00:00.0000, -2.163664818006800E+08, -1.661752859448111E+08, 6.865467308300513E+07,
2460210.500000000, A.D. 2023-Sep-23 00:00:00.0000, -2.084500189219426E+08, -1.759200710905060E+08, 7.250563589812627E+07,
2460217.500000000, A.D. 2023-Sep-30 00:00:00.0000, -2.000835532487730E+08, -1.852851228865983E+08, 7.620007591380319E+07,
2460224.500000000, A.D. 2023-Oct-07 00:00:00.0000, -1.912892897044071E+08, -1.942540636094041E+08, 7.973159529829520E+07,
2460231.500000000, A.D. 2023-Oct-14 00:00:00.0000, -1.820899212724492E+08, -2.028116676695608E+08, 8.309426450636731E+07,
2460238.500000000, A.D. 2023-Oct-21 00:00:00.0000, -1.725085591809219E+08, -2.109438541659299E+08, 8.628261791818577E+07,
2460245.500000000, A.D. 2023-Oct-28 00:00:00.0000, -1.625686659730782E+08, -2.186376749951504E+08, 8.929164829023336E+07,
2460252.500000000, A.D. 2023-Nov-04 00:00:00.0000, -1.522939927584528E+08, -2.258812996996045E+08, 9.211680023803860E+07,
2460259.500000000, A.D. 2023-Nov-11 00:00:00.0000, -1.417085204666255E+08, -2.326639980448479E+08, 9.475396284099375E+07,
2460266.500000000, A.D. 2023-Nov-18 00:00:00.0000, -1.308364048478498E+08, -2.389761207640131E+08, 9.719946149031912E+07,
2460273.500000000, A.D. 2023-Nov-25 00:00:00.0000, -1.197019250838541E+08, -2.448090787987451E+08, 9.945004911594251E+07,
2460280.500000000, A.D. 2023-Dec-02 00:00:00.0000, -1.083294358936094E+08, -2.501553213722683E+08, 1.015028969207018E+08,
2460287.500000000, A.D. 2023-Dec-09 00:00:00.0000, -9.674332294704634E+07, -2.550083132491696E+08, 1.033555847295900E+08,
2460294.500000000, A.D. 2023-Dec-16 00:00:00.0000, -8.496796117072921E+07, -2.593625114388889E+08, 1.050060910364140E+08,
2460301.500000000, A.D. 2023-Dec-23 00:00:00.0000, -7.302767545386718E+07, -2.632133409001743E+08, 1.064527828691781E+08,
2460308.500000000, A.D. 2023-Dec-30 00:00:00.0000, -6.094670494040610E+07, -2.665571684164984E+08, 1.076944057690985E+08,
2460315.500000000, A.D. 2024-Jan-06 00:00:00.0000, -4.874917251502143E+07, -2.693912771980824E+08, 1.087300739281701E+08,
2460322.500000000, A.D. 2024-Jan-13 00:00:00.0000, -3.645905613836095E+07, -2.717138441934843E+08, 1.095592601149607E+08,
2460329.500000000, A.D. 2024-Jan-20 00:00:00.0000, -2.410016063445847E+07, -2.735239171836779E+08, 1.101817855918571E+08,
2460336.500000000, A.D. 2024-Jan-27 00:00:00.0000, -1.169609178524231E+07, -2.748213911419281E+08, 1.105978103183947E+08,
2460343.500000000, A.D. 2024-Feb-03 00:00:00.0000, 7.297670132996934E+05, -2.756069849235241E+08, 1.108078234494276E+08,
2460350.500000000, A.D. 2024-Feb-10 00:00:00.0000, 1.315427598194364E+07, -2.758822186744582E+08, 1.108126341185174E+08,
2460357.500000000, A.D. 2024-Feb-17 00:00:00.0000, 2.555455838183481E+07, -2.756493920322071E+08, 1.106133625256368E+08,
2460364.500000000, A.D. 2024-Feb-24 00:00:00.0000, 3.790801833032723E+07, -2.749115631686280E+08, 1.102114313488822E+08,
2460371.500000000, A.D. 2024-Mar-02 00:00:00.0000, 5.019235719978394E+07, -2.736725287573594E+08, 1.096085574882255E+08,
2460378.500000000, A.D. 2024-Mar-09 00:00:00.0000, 6.238558889878688E+07, -2.719368049651521E+08, 1.088067441306735E+08,
2460385.500000000, A.D. 2024-Mar-16 00:00:00.0000, 7.446605459211317E+07, -2.697096092957819E+08, 1.078082731217828E+08,
2460392.500000000, A.D. 2024-Mar-23 00:00:00.0000, 8.641243691473658E+07, -2.669968421963062E+08, 1.066156977511950E+08,
2460399.500000000, A.D. 2024-Mar-30 00:00:00.0000, 9.820377158884828E+07, -2.638050684644443E+08, 1.052318361647072E+08,
2460406.500000000, A.D. 2024-Apr-06 00:00:00.0000, 1.098194568394885E+08, -2.601415018271384E+08, 1.036597651094277E+08,
2460413.500000000, A.D. 2024-Apr-13 00:00:00.0000, 1.212392642923046E+08, -2.560139918485288E+08, 1.019028137550478E+08,
2460420.500000000, A.D. 2024-Apr-20 00:00:00.0000, 1.324433505272276E+08, -2.514310104787157E+08, 9.996455789288951E+07,
2460427.500000000, A.D. 2024-Apr-27 00:00:00.0000, 1.434122678917373E+08, -2.464016387836589E+08, 9.784881459553616E+07,
2460434.500000000, A.D. 2024-May-04 00:00:00.0000, 1.541269747790323E+08, -2.409355545302615E+08, 9.555963725696330E+07,
2460441.500000000, A.D. 2024-May-11 00:00:00.0000, 1.645688457234220E+08, -2.350430206929991E+08, 9.310131096659833E+07,
2460448.500000000, A.D. 2024-May-18 00:00:00.0000, 1.747196815042551E+08, -2.287348748200457E+08, 9.047834819364944E+07,
2460455.500000000, A.D. 2024-May-25 00:00:00.0000, 1.845617193867424E+08, -2.220225192201426E+08, 8.769548475831968E+07,
2460462.500000000, A.D. 2024-Jun-01 00:00:00.0000, 1.940776436583927E+08, -2.149179119745279E+08, 8.475767605581339E+07,
2460469.500000000, A.D. 2024-Jun-08 00:00:00.0000, 2.032505968047044E+08, -2.074335587369145E+08, 8.167009348400547E+07,
2460476.500000000, A.D. 2024-Jun-15 00:00:00.0000, 2.120641918196532E+08, -1.995825047148070E+08, 7.843812106057157E+07,
2460483.500000000, A.D. 2024-Jun-22 00:00:00.0000, 2.205025247356396E+08, -1.913783255959298E+08, 7.506735239518549E+07,
2460490.500000000, A.D. 2024-Jun-29 00:00:00.0000, 2.285501853318416E+08, -1.828351191732090E+08, 7.156358803347813E+07,
2460497.500000000, A.D. 2024-Jul-06 00:00:00.0000, 2.361922687410626E+08, -1.739675000600064E+08, 6.793283269349405E+07,
2460504.500000000, A.D. 2024-Jul-13 00:00:00.0000, 2.434143899796635E+08, -1.647905945859496E+08, 6.418129241248077E+07,
2460511.500000000, A.D. 2024-Jul-20 00:00:00.0000, 2.502026994881951E+08, -1.553200346377032E+08, 6.031537184654710E+07,
2460518.500000000, A.D. 2024-Jul-27 00:00:00.0000, 2.565438990946015E+08, -1.455719513127131E+08, 5.634167166902369E+07,
2460525.500000000, A.D. 2024-Aug-03 00:00:00.0000, 2.624252587358476E+08, -1.355629686632062E+08, 5.226698597304823E+07,
2460532.500000000, A.D. 2024-Aug-10 00:00:00.0000, 2.678346341623895E+08, -1.253101974315584E+08, 4.809829962150118E+07,
2460539.500000000, A.D. 2024-Aug-17 00:00:00.0000, 2.727604857267773E+08, -1.148312286473712E+08, 4.384278549768580E+07,
2460546.500000000, A.D. 2024-Aug-24 00:00:00.0000, 2.771918983312156E+08, -1.041441269972713E+08, 3.950780160445764E+07,
2460553.500000000, A.D. 2024-Aug-31 00:00:00.0000, 2.811186026836586E+08, -9.326742391344480E+07, 3.510088794197924E+07,
2460560.500000000, A.D. 2024-Sep-07 00:00:00.0000, 2.845309982435163E+08, -8.222011012669961E+07, 3.062976307966215E+07,
2460567.500000000, A.D. 2024-Sep-14 00:00:00.0000, 2.874201779492663E+08, -7.102162654183303E+07, 2.610232043424373E+07,
2460574.500000000, A.D. 2024-Sep-21 00:00:00.0000, 2.897779527083935E+08, -5.969185286990222E+07, 2.152662441683630E+07,
2460581.500000000, A.D. 2024-Sep-28 00:00:00.0000, 2.915968751603783E+08, -4.825109708830519E+07, 1.691090617189316E+07,
2460588.500000000, A.D. 2024-Oct-05 00:00:00.0000, 2.928702663682019E+08, -3.672008555650716E+07, 1.226355851229642E+07,
2460595.500000000, A.D. 2024-Oct-12 00:00:00.0000, 2.935922450637447E+08, -2.511995063328248E+07, 7.593130268507218E+06,
2460602.500000000, A.D. 2024-Oct-19 00:00:00.0000, 2.937577576740561E+08, -1.347221589745487E+07, 2.908320127101338E+06,
2460609.500000000, A.D. 2024-Oct-26 00:00:00.0000, 2.933626090523878E+08, -1.798779603662242E+06, -1.782030174334824E+06,
2460616.500000000, A.D. 2024-Nov-02 00:00:00.0000, 2.924034941028463E+08, 9.878103656045178E+06, -6.468943407518808E+06,
2460623.500000000, A.D. 2024-Nov-09 00:00:00.0000, 2.908780303042397E+08, 2.153584329265558E+07, -1.114331525450490E+07,
2460630.500000000, A.D. 2024-Nov-16 00:00:00.0000, 2.887847910482714E+08, 3.315153525814656E+07, -1.579592363110524E+07,
2460637.500000000, A.D. 2024-Nov-23 00:00:00.0000, 2.861233397105227E+08, 4.470198692993402E+07, -2.041743902143771E+07,
2460644.500000000, A.D. 2024-Nov-30 00:00:00.0000, 2.828942645137022E+08, 5.616374449299131E+07, -2.499843592858404E+07,
2460651.500000000, A.D. 2024-Dec-07 00:00:00.0000, 2.790992144160483E+08, 6.751312341997352E+07, -2.952940552831626E+07,
2460658.500000000, A.D. 2024-Dec-14 00:00:00.0000, 2.747409350968669E+08, 7.872624345183136E+07, -3.400076943826809E+07,
2460665.500000000, A.D. 2024-Dec-21 00:00:00.0000, 2.698233024576792E+08, 8.977906702851750E+07, -3.840289455734821E+07,
2460672.500000000, A.D. 2024-Dec-28 00:00:00.0000, 2.643513553292598E+08, 1.006474383876244E+08, -4.272610945953190E+07,
2460679.500000000, A.D. 2025-Jan-04 00:00:00.0000, 2.583313296698444E+08, 1.113071258905992E+08, -4.696072244193256E+07,
2460686.500000000, A.D. 2025-Jan-11 00:00:00.0000, 2.517706921125254E+08, 1.217338694053370E+08, -5.109704098144629E+07,
2460693.500000000, A.D. 2025-Jan-18 00:00:00.0000, 2.446781715987052E+08, 1.319034319568503E+08, -5.512539264706782E+07,
2460700.500000000, A.D. 2025-Jan-25 00:00:00.0000, 2.370637889461901E+08, 1.417916552655367E+08, -5.903614757429644E+07,
2460707.500000000, A.D. 2025-Feb-01 00:00:00.0000, 2.289388840992695E+08, 1.513745192084771E+08, -6.281974255040500E+07,
2460714.500000000, A.D. 2025-Feb-08 00:00:00.0000, 2.203161406401975E+08, 1.606282052594662E+08, -6.646670672603123E+07,
2460721.500000000, A.D. 2025-Feb-15 00:00:00.0000, 2.112096070825317E+08, 1.695291638875726E+08, -6.996768895169990E+07,
$$EOE